NORAD_CAT_ID,OBJECT_NAME,OBJECT_TYPE,EPOCH,MEAN_MOTION,ECCENTRICITY,INCLINATION,RA_OF_ASC_NODE,ARG_OF_PERICENTER,MEAN_ANOMALY,BSTAR,MEAN_MOTION_DOT,MEAN_MOTION_DDOT,TLE_LINE0,TLE_LINE1,TLE_LINE2,SEMIMAJOR_AXIS,PERIOD,APOGEE,PERIGEE,DECAYED
51981.0,STARLINK-3635,PAYLOAD,2022-05-02 22:00:01,15.29185857,0.0001205,53.2172,235.5165,71.0109,6.6407,-0.025911,-0.00688379,0.0,0 STARLINK-3635,1 51981U 22025AB  22122.91668981 -.00688379  00000-0 -25911-1 0  9994,2 51981  53.2172 235.5165 0001205  71.0109   6.6407 15.29185857  3668,6856.382,94.168,479.073,477.421,0.0
51981.0,STARLINK-3635,PAYLOAD,2022-05-03 14:00:01,15.28209139,0.0001625,53.2173,232.4234,50.1235,98.3712,-0.026708,-0.00688535,0.0,0 STARLINK-3635,1 51981U 22025AB  22123.58334491 -.00688535  00000-0 -26708-1 0  9993,2 51981  53.2173 232.4234 0001625  50.1235  98.3712 15.28209139  3662,6859.303000000001,94.228,482.283,480.05300000000005,0.0
51981.0,STARLINK-3635,PAYLOAD,2022-05-03 20:00:01,15.278437699999998,0.0001369,53.2173,231.2652,60.6324,23.8461,-0.027001,-0.00688303,0.0,0 STARLINK-3635,1 51981U 22025AB  22123.83334491 -.00688303  00000-0 -27001-1 0  9991,2 51981  53.2173 231.2652 0001369  60.6324  23.8461 15.27843770  9904,6860.396,94.25,483.201,481.322,0.0
51981.0,STARLINK-3635,PAYLOAD,2022-05-03 22:00:00,15.27720998,0.0001416999999999,53.2172,230.8776,64.9018,118.1667,-0.027109,-0.00688453,0.0,0 STARLINK-3635,1 51981U 22025AB  22123.91667824 -.00688453  00000-0 -27109-1 0  9994,2 51981  53.2172 230.8776 0001417  64.9018 118.1667 15.27720998  3665,6860.764,94.258,483.601,481.657,0.0
51981.0,STARLINK-3635,PAYLOAD,2022-05-04 14:00:01,15.26743244,0.0001581,53.2174,227.7914,56.5606,193.8947,-0.02785,-0.00686609,0.0,0 STARLINK-3635,1 51981U 22025AB  22124.58334491 -.00686609  00000-0 -27850-1 0  9993,2 51981  53.2174 227.7914 0001581  56.5606 193.8947 15.26743244  3667,6863.693,94.318,486.643,484.473,0.0
51981.0,STARLINK-3635,PAYLOAD,2022-05-04 20:00:01,15.26378422,0.0001426,53.2171,226.635,65.8638,119.3194,-0.028242,-0.00688418,0.0,0 STARLINK-3635,1 51981U 22025AB  22124.83335648 -.00688418  00000-0 -28242-1 0  9992,2 51981  53.2171 226.6350 0001426  65.8638 119.3194 15.26378422 10063,6864.786,94.341,487.63,485.672,0.0
51981.0,STARLINK-3635,PAYLOAD,2022-05-04 22:00:01,15.26257161,0.0001328,53.2173,226.2489,72.1873,211.1446,-0.028438,-0.00690468,0.0,0 STARLINK-3635,1 51981U 22025AB  22124.91668981 -.00690468  00000-0 -28438-1 0  9995,2 51981  53.2173 226.2489 0001328  72.1873 211.1446 15.26257161  3662,6865.15,94.348,487.927,486.103,0.0
51981.0,STARLINK-3635,PAYLOAD,2022-05-05 14:00:01,15.25280321,0.0001523,53.2175,223.17,50.1913,296.9429,-0.029253,-0.0068963,0.0,0 STARLINK-3635,1 51981U 22025AB  22125.58334491 -.00689630  00000-0 -29253-1 0  9990,2 51981  53.2175 223.1700 0001523  50.1913 296.9429 15.25280321  3669,6868.081,94.409,490.992,488.9,0.0
51981.0,STARLINK-3635,PAYLOAD,2022-05-05 22:00:00,15.24791821,0.000127,53.2174,221.6308,62.2591,315.9290000000001,-0.029673,-0.00697051,0.0,0 STARLINK-3635,1 51981U 22025AB  22125.91667824 -.00697051  00000-0 -29673-1 0  9998,2 51981  53.2174 221.6308 0001270  62.2591 315.9290 15.24791821  3658,6869.5480000000025,94.439,492.285,490.54,0.0
51981.0,STARLINK-3635,PAYLOAD,2022-05-06 04:00:00,15.24422827,0.0001363,53.2173,220.4769,62.3435,248.7511,-0.02979,-0.00684741,0.0,0 STARLINK-3635,1 51981U 22025AB  22126.16667824 -.00684741  00000-0 -29790-1 0  9998,2 51981  53.2173 220.4769 0001363  62.3435 248.7511 15.24422827 10267,6870.656,94.462,493.458,491.585,0.0
51981.0,STARLINK-3635,PAYLOAD,2022-05-06 14:00:01,15.23816296,0.0001683,53.2175,218.5588,42.6445,35.8887,-0.030632,-0.00698745,0.0,0 STARLINK-3635,1 51981U 22025AB  22126.58334491 -.00698745  00000-0 -30632-1 0  9991,2 51981  53.2175 218.5588 0001683  42.6445  35.8887 15.23816296  3677,6872.479,94.5,495.501,493.18800000000016,0.0
51981.0,STARLINK-3635,PAYLOAD,2022-05-07 04:00:00,15.22957908,0.0001293,53.2173,215.8716,59.6097,339.8040000000001,-0.031113,-0.00692166,0.0,0 STARLINK-3635,1 51981U 22025AB  22127.16667824 -.00692166  00000-0 -31113-1 0  9991,2 51981  53.2173 215.8716 0001293  59.6097 339.8040 15.22957908 10419,6875.061,94.553,497.815,496.037,0.0
51981.0,STARLINK-3635,PAYLOAD,2022-05-07 14:00:01,15.22349701,0.0001695,53.2174,213.9579,49.4624,115.1904,-0.031839,-0.00695447,0.0,0 STARLINK-3635,1 51981U 22025AB  22127.58334491 -.00695447  00000-0 -31839-1 0  9998,2 51981  53.2174 213.9579 0001695  49.4624 115.1904 15.22349701  3664,6876.892,94.591,499.923,497.592,0.0
51981.0,STARLINK-3635,PAYLOAD,2022-05-07 22:00:00,15.21862013,0.0001466,53.2173,212.4253,66.1104,126.0757,-0.032344,-0.00696261,0.0,0 STARLINK-3635,1 51981U 22025AB  22127.91667824 -.00696261  00000-0 -32344-1 0  9991,2 51981  53.2173 212.4253 0001466  66.1104 126.0757 15.21862013  3652,6878.361,94.621,501.235,499.218,0.0
51981.0,STARLINK-3635,PAYLOAD,2022-05-08 04:00:00,15.214950199999995,0.000161,53.2173,211.2767,48.7324,73.7192,-0.032646,-0.00695265,0.0,0 STARLINK-3635,1 51981U 22025AB  22128.16667824 -.00695265  00000-0 -32646-1 0  9997,2 51981  53.2173 211.2767 0001610  48.7324  73.7192 15.21495020 10569,6879.467,94.644,502.44,500.225,0.0
51981.0,STARLINK-3635,PAYLOAD,2022-05-08 14:00:01,15.20883732,0.0001625,53.2175,209.3672,55.4354,190.0561,-0.033127,-0.00693065,0.0,0 STARLINK-3635,1 51981U 22025AB  22128.58334491 -.00693065  00000-0 -33127-1 0  9995,2 51981  53.2175 209.3672 0001625  55.4354 190.0561 15.20883732  3653,6881.311,94.682,504.294,502.057,0.0
51981.0,STARLINK-3635,PAYLOAD,2022-05-08 22:00:00,15.20397879,0.0001412,53.2174,207.838,66.0501,205.2143,-0.033842,-0.0069765,0.0,0 STARLINK-3635,1 51981U 22025AB  22128.91667824 -.00697650  00000-0 -33842-1 0  9999,2 51981  53.2174 207.8380 0001412  66.0501 205.2143 15.20397879  3654,6882.776999999999,94.712,505.61300000000006,503.67,0.0
51981.0,STARLINK-3635,PAYLOAD,2022-05-09 12:00:00,15.19541824,0.0001524,53.2174,205.1685,60.848,164.1063,-0.0345399999999999,-0.00694642,0.0,0 STARLINK-3635,1 51981U 22025AB  22129.50001157 -.00694642  00000-0 -34540-1 0  9990,2 51981  53.2174 205.1685 0001524  60.8480 164.1063 15.19541824 10779,6885.361,94.765,508.276,506.177,0.0
51981.0,STARLINK-3635,PAYLOAD,2022-05-09 14:00:01,15.19419495,0.0001428,53.2175,204.7868,59.9406,261.1722,-0.034634,-0.00694079,0.0,0 STARLINK-3635,1 51981U 22025AB  22129.58335648 -.00694079  00000-0 -34634-1 0  9991,2 51981  53.2175 204.7868 0001428  59.9406 261.1722 15.19419495  3655,6885.731,94.773,508.579,506.61300000000006,0.0
51981.0,STARLINK-3635,PAYLOAD,2022-05-09 22:00:00,15.18932615,0.0001315999999999,53.2174,203.2609,63.8951,281.1675,-0.035292,-0.00697085,0.0,0 STARLINK-3635,1 51981U 22025AB  22129.91667824 -.00697085  00000-0 -35292-1 0  9993,2 51981  53.2174 203.2609 0001316  63.8951 281.1675 15.18932615  3647,6887.2019999999975,94.803,509.974,508.161,0.0
51981.0,STARLINK-3635,PAYLOAD,2022-05-10 12:00:00,15.18077108,0.0001438,53.2173,200.5974,60.2616,235.4105,-0.036054,-0.00694841,0.0,0 STARLINK-3635,1 51981U 22025AB  22130.50001157 -.00694841  00000-0 -36054-1 0  9995,2 51981  53.2173 200.5974 0001438  60.2616 235.4105 15.18077108 10921,6889.79,94.857,512.645,510.664,0.0
51981.0,STARLINK-3635,PAYLOAD,2022-05-10 14:00:01,15.17954753,0.0001426999999999,53.2175,200.2168,56.2503,335.077,-0.036172,-0.00694662,0.0,0 STARLINK-3635,1 51981U 22025AB  22130.58334491 -.00694662  00000-0 -36172-1 0  9995,2 51981  53.2175 200.2168 0001427  56.2503 335.0770 15.17954753  3648,6890.16,94.864,513.008,511.042,0.0
51981.0,STARLINK-3635,PAYLOAD,2022-05-10 18:00:00,15.17703348,0.0001544,53.2168,199.4607,55.8318,166.6948,-0.035771,-0.00682806,0.0,0 STARLINK-3635,1 51981U 22025AB  22130.75001157 -.00682806  00000-0 -35771-1 0  9995,2 51981  53.2168 199.4607 0001544  55.8318 166.6948 15.17703348  3632,6890.920999999999,94.88,513.85,511.722,0.0
51981.0,STARLINK-3635,PAYLOAD,2022-05-11 20:00:01,15.16124702,0.0001439,53.2174,194.5175,51.4802,330.2689,-0.038225,-0.00696312,0.0,0 STARLINK-3635,1 51981U 22025AB  22131.83334491 -.00696312  00000-0 -38225-1 0  9999,2 51981  53.2174 194.5175 0001439  51.4802 330.2689 15.16124702 11122,6895.703,94.979,518.56,516.576,0.0
51981.0,STARLINK-3635,PAYLOAD,2022-05-11 22:00:00,15.16000993,0.0001530999999999,53.2174,194.1377,51.8631,64.9549,-0.038184,-0.00693323,0.0,0 STARLINK-3635,1 51981U 22025AB  22131.91667824 -.00693323  00000-0 -38184-1 0  9990,2 51981  53.2174 194.1377 0001531  51.8631  64.9549 15.16000993  1309,6896.078,94.987,518.999,516.888,0.0
51981.0,STARLINK-3635,PAYLOAD,2022-05-12 14:00:01,15.15021727,0.0001654,53.2175,191.1073,51.81,104.2327,-0.039002,-0.00688974,0.0,0 STARLINK-3635,1 51981U 22025AB  22132.58334491 -.00688974  00000-0 -39002-1 0  9991,2 51981  53.2175 191.1073 0001654  51.8100 104.2327 15.15021727  1306,6899.05,95.048,522.056,519.773,0.0
51981.0,STARLINK-3635,PAYLOAD,2022-05-12 22:00:00,15.14535816,0.0001629,53.2174,189.5914,51.6593,123.1155,-0.039753,-0.00692372,0.0,0 STARLINK-3635,1 51981U 22025AB  22132.91667824 -.00692372  00000-0 -39753-1 0  9997,2 51981  53.2174 189.5914 0001629  51.6593 123.1155 15.14535816  1303,6900.525,95.079,523.514,521.266,0.0
51981.0,STARLINK-3635,PAYLOAD,2022-05-13 04:00:00,15.14170575,0.0001736,53.2174,188.4566,45.445,52.9931,-0.040226,-0.00693337,0.0,0 STARLINK-3635,1 51981U 22025AB  22133.16667824 -.00693337  00000-0 -40226-1 0  9994,2 51981  53.2174 188.4566 0001736  45.4450  52.9931 15.14170575 11327,6901.635,95.102,524.698,522.302,0.0
51981.0,STARLINK-3635,PAYLOAD,2022-05-13 14:00:01,15.13556094,0.0001732,53.2174,186.5679,49.1796,161.2996,-0.040539,-0.00687124,0.0,0 STARLINK-3635,1 51981U 22025AB  22133.58334491 -.00687124  00000-0 -40539-1 0  9995,2 51981  53.2174 186.5679 0001732  49.1796 161.2996 15.13556094  1306,6903.503000000002,95.14,526.563,524.172,0.0
